COSMOS 2507 (RODNIK-S *)
1 40920U 15050A   26169.27865596  .00000096  00000+0  61837-3 0  9990
2 40920  82.4931  78.9911 0010159 354.6153   5.4816 12.42926840486990
COSMOS 2508 (RODNIK-S *)
1 40921U 15050B   26169.23368852  .00000073  00000+0  45178-3 0  9995
2 40921  82.4883  77.5239 0015155  24.7147 335.4656 12.42914261486974
COSMOS 2509 (RODNIK-S *)
1 40922U 15050C   26169.25405311  .00000103  00000+0  67230-3 0  9997
2 40922  82.4891  77.6137 0015706  40.8467 319.3787 12.42883811487016
LINGQIAO VIDEO A        
1 40959U 15057B   26169.30976770  .00000653  00000+0  98485-4 0  9999
2 40959  97.6617 164.0566 0015136 266.5231  93.4249 14.77394946575578
LINGQIAO VIDEO B        
1 40960U 15057C   26169.28636027  .00000866  00000+0  12801-3 0  9999
2 40960  97.6582 165.1975 0015288 266.5649  93.3814 14.77501435575613
JILIN-1                 
1 40961U 15057D   26169.23172004  .00000650  00000+0  96377-4 0  9997
2 40961  97.6508 168.5465 0015335 259.2142 100.7343 14.78161907575766
FOX-1A (AO-85)          
1 40967U 15058D   26169.29160428  .00001807  00000+0  17049-3 0  9990
2 40967  64.7760 275.5520 0130538  56.1547 305.1908 14.90973898113731
SINOD-D 1               
1 40968U 15058E   26169.21480976  .00002423  00000+0  20145-3 0  9992
2 40968  64.7751 255.6947 0119097  52.6726 308.5169 14.95910862116816
ELEKTRO-L 2             
1 41105U 15074A   26169.03651196 -.00000126  00000+0  00000+0 0  9991
2 41105   6.6975  70.5132 0000903 256.1704 298.2263  1.00270556 38516
DAMPE                   
1 41173U 15078A   26169.27966438  .00000767  00000+0  28344-4 0  9990
2 41173  97.4550 174.7518 0013780  73.6339 286.6415 15.30786879584712
ORBCOMM FM110           
1 41182U 15081D   26168.92574824  .00000540  00000+0  15044-3 0  9990
2 41182  47.0033 357.9511 0002494  80.4208 279.6960 14.58881675557736
ORBCOMM FM112           
1 41184U 15081F   26169.30697124  .00000434  00000+0  12796-3 0  9997
2 41184  46.9989 264.9521 0003794 222.4136 137.6457 14.58905836559110
ORBCOMM FM113           
1 41185U 15081G   26167.98238227  .00000280  00000+0  95480-4 0  9996
2 41185  47.0010 271.5920 0002254 223.6251 136.4456 14.58858314558906
ORBCOMM FM108           
1 41187U 15081J   26169.04056137  .00000258  00000+0  90814-4 0  9996
2 41187  47.0030 178.1625 0002987 224.9174 135.1471 14.58870752560204
ORBCOMM FM117           
1 41188U 15081K   26169.07456361  .00000188  00000+0  76125-4 0  9994
2 41188  46.9995 176.6350 0003503 228.4581 131.6005 14.58865755560253
ORBCOMM FM116           
1 41189U 15081L   26167.75377462  .00000488  00000+0  13931-3 0  9990
2 41189  47.0020 272.6710 0000581  62.4502 297.6443 14.58882755558877
HORYU-4                 
1 41340U 16012D   26169.06253989  .00440932  72868-4  98167-3 0  9999
2 41340  30.9844  72.5998 0005941 278.9863  81.0127 15.96640257570954
ZIYUAN 3-02 (ZY 3-02)   
1 41556U 16033A   26169.11043694  .00004192  00000+0  18917-3 0  9990
2 41556  97.3833 244.8682 0011150 286.0471  73.9537 15.21488907558126
CARTOSAT-2C             
1 41599U 16040A   26169.31198257  .00003421  00000+0  16560-3 0  9999
2 41599  97.4475 229.2752 0010012 127.4565 232.7582 15.19199004553886
LAPAN-A3                
1 41603U 16040E   26169.30073589  .00002801  00000+0  89787-4 0  9997
2 41603  97.1489 165.4097 0010763  22.1337 338.0368 15.33110590554981
GAOFEN-3                
1 41727U 16049A   26169.33278057  .00000220  00000+0  79841-4 0  9996
2 41727  98.4005 177.1017 0001418  97.8793 262.2558 14.42216337518816
CAS-2T & KS-1Q          
1 41847U 16066G   26169.21027534  .00001412  00000+0  20488-3 0  9993
2 41847  98.3822 244.9349 0342821 126.3847 236.9490 14.44697523504944
YUNHAI-1 01             
1 41857U 16068A   26169.28378170  .00000382  00000+0  15668-3 0  9997
2 41857  98.5824 180.2808 0006117  40.3844 319.7793 14.32706873501981
RESOURCESAT-2A          
1 41877U 16074A   26169.26729406 -.00000037  00000+0  33275-5 0  9990
2 41877  98.7528 242.7629 0003315  82.1670 277.9883 14.21616106494454
